FENGYUN 1C DEB          
1 31536U 99025BYB 17345.36514212  .00000433  00000-0  96703-4 0  9996
2 31536  98.1770  27.3594 0429268 158.5239 203.4570 14.16937125545976
